PROBA-1                 
1 26958U 01049B   26200.59324043  .00000459  00000+0  33792-4 0  9999
2 26958  97.9602 210.2605 0055288  15.0472 345.2383 15.07622166348502
CUTE-1 (CO-55)          
1 27844U 03031E   26200.49154011  .00000118  00000+0  70118-4 0  9997
2 27844  98.6745 208.6450 0010868  91.6414 268.6010 14.24353085196272
CUBESAT XI-IV (CO-57)   
1 27848U 03031J   26200.49623929  .00000096  00000+0  61252-4 0  9994
2 27848  98.6776 208.3362 0010654 108.0973 252.1367 14.23635874195972
APRIZESAT 4             
1 35684U 09041D   26200.48903765  .00000297  00000+0  42286-4 0  9995
2 35684  98.1400 276.4519 0042497 215.2836 144.5563 14.83917122916155
APRIZESAT 3             
1 35686U 09041F   26200.39854465  .00000179  00000+0  21300-4 0  9992
2 35686  98.2107 355.1744 0060709 321.8582  37.8349 14.96315905921196
PROBA-2                 
1 36037U 09059B   26200.49610077  .00000062  00000+0  24966-4 0  9994
2 36037  98.2463  23.4029 0013312 175.3918 184.7404 14.54874597886225
APRIZESAT 5             
1 37792U 11044E   26200.57000551  .00000333  00000+0  49527-4 0  9990
2 37792  98.2447 134.5301 0050692 258.2244 101.3278 14.81131319803588
APRIZESAT 6             
1 37793U 11044F   26200.33772812  .00000329  00000+0  54015-4 0  9994
2 37793  98.2332 111.4907 0042715 344.9713 131.8947 14.76960182801894
PROBA-V                 
1 39159U 13021A   26200.45004703  .00000015  00000+0  24486-4 0  9990
2 39159  98.3608 177.4676 0005090  50.2807 309.8821 14.23603794685703
APRIZESAT 7             
1 39416U 13066A   26200.42132201  .00000722  00000+0  76685-4 0  9990
2 39416  97.7723 153.1819 0037316 103.8592 256.6783 14.91624649686032
APRIZESAT 8             
1 39425U 13066K   26200.42640236  .00000364  00000+0  45408-4 0  9993
2 39425  97.8231 147.4480 0045871 177.9020 182.2398 14.87699867684460
BUGSAT-1 (TITA)         
1 40014U 14033E   26200.58157920  .00002540  00000+0  13521-3 0  9992
2 40014  98.0430 295.0330 0029012  71.7644 288.6741 15.15907725660741
SAUDISAT 4              
1 40016U 14033G   26200.64817405  .00000205  00000+0  33861-4 0  9998
2 40016  97.7625 345.6681 0043907 329.3884  30.4767 14.79577961650871
APRIZESAT 9             
1 40018U 14033J   26200.31163065  .00000296  00000+0  50788-4 0  9997
2 40018  97.9100 332.7318 0067513  96.9929 263.8964 14.74255546648294
APRIZESAT 10            
1 40019U 14033K   26200.30346157  .00000299  00000+0  54797-4 0  9999
2 40019  97.9686 326.5530 0079059 170.2559 190.0203 14.70913739646975
TECHDEMOSAT-1 (TDS-1)   
1 40076U 14037H   26200.48726536  .00003617  00000+0  20513-3 0  9993
2 40076  98.3834 195.9154 0007291 146.0018 214.1679 15.13712273653115
TECHNOSAT               
1 42829U 17042E   26200.42789739  .00001246  00000+0  91427-4 0  9997
2 42829  97.4324 356.8685 0017021 349.5858  10.5014 15.05123837491550
FLYING LAPTOP           
1 42831U 17042G   26200.64559456  .00002014  00000+0  16035-3 0  9990
2 42831  97.4833 354.9616 0019459  18.4043 341.7881 15.01330532491320
HAWK-A                  
1 43765U 18099H   26200.37229486  .00003699  00000+0  14864-3 0  9995
2 43765  97.3892 252.1928 0035151 169.3501 190.8489 15.24995975418002
HAWK-B                  
1 43794U 18099AN  26200.56392661  .00003123  00000+0  13348-3 0  9992
2 43794  97.3942 251.7283 0031820 186.5868 173.4955 15.23143399417968
HAWK-C                  
1 43799U 18099AT  26200.53713367  .00004530  00000+0  16199-3 0  9994
2 43799  97.3867 253.4287 0040754 168.5797 191.6378 15.28530830418854
SALSAT                  
1 46495U 20068K   26200.45326485  .00003827  00000+0  13372-3 0  9999
2 46495  97.8865 205.4942 0009671 177.8105 182.3178 15.30206359320291
HAWK-2C                 
1 47502U 21006CT  26200.09793847  .00003515  00000+0  10567-3 0  9999
2 47502  97.2259 243.7759 0008677  89.8938 270.3300 15.35017206304398
HAWK-2A                 
1 47505U 21006CW  26200.10010843  .00003637  00000+0  10919-3 0  9998
2 47505  97.2301 244.4744 0008233  93.1893 267.0293 15.35038326304397
HAWK-2B                 
1 47508U 21006CZ  26200.48439720  .00003801  00000+0  11352-3 0  9996
2 47508  97.2173 243.1324 0008760  90.6156 269.6091 15.35170905304457
HAWK-3B                 
1 48931U 21059BE  26200.49246955  .00028211  00000+0  21570-3 0  9997
2 48931  97.6636  40.3202 0004715 183.9849 176.1377 15.72127620282922
HAWK-3C                 
1 48948U 21059BX  26200.49215254  .00030963  00000+0  23656-3 0  9997
2 48948  97.6753  46.0607 0005102 183.2266 176.8964 15.72126527282923
HAWK-3A                 
1 48957U 21059CG  26200.49204082  .00029976  00000+0  22908-3 0  9995
2 48957  97.6699  43.2394 0005005 185.6574 174.4632 15.72126850282929
HAWK-5C                 
1 52754U 22057Y   26200.41182567  .00010379  00000+0  17167-3 0  9997
2 52754  97.6630   2.1889 0002450 326.0497  34.0598 15.52417418231346
HAWK-5B                 
1 52756U 22057AA  26200.41165140  .00010442  00000+0  17271-3 0  9994
2 52756  97.6641   0.5433 0003120 312.2467  47.8520 15.52413523231346
